SL-14 R/B               
1 19574U 88093B   25110.20754331  .00000804  00000+0  90540-4 0  9991
2 19574  82.5326 345.5914 0021643  32.1650 105.1458 14.85267242974104
SL-16 R/B               
1 19650U 88102B   25110.17825542  .00000352  00000+0  20201-3 0  9990
2 19650  70.9969 112.1623 0013089 151.4706 208.7137 14.16095786881376
INTERCOSMOS 24          
1 20261U 89080A   25110.03453286  .00000745  00000+0  22000-3 0  9998
2 20261  82.6043 314.8792 1190198 323.5666  28.9813 12.58952866625657
SL-14 R/B               
1 20262U 89080C   25109.72441558  .00000361  00000+0  10593-3 0  9990
2 20262  82.5985  21.1960 1230803 205.1293 148.4724 12.50263483619661
DELTA 1 R/B             
1 20323U 89089B   25110.29397354  .00000746  00000+0  19410-3 0  9999
2 20323  97.1110   3.5616 0070867  64.4897 296.3608 14.50338491869384
ARIANE 40 R/B           
1 20443U 90005H   25109.60535840  .00000597  00000+0  20462-3 0  9992
2 20443  98.3500 174.0830 0011451  99.6836 260.5646 14.39588555846174
DELTA 2 R/B(1)          
1 20453U 90008B   25110.22580447  .00031284  00000+0  75843-3 0  9999
2 20453  35.6115  87.8098 0148206 204.6063 154.7538 15.29450899876230
COSMOS 2058             
1 20465U 90010A   25109.94915978  .00005109  00000+0  32581-3 0  9992
2 20465  82.4877   5.3809 0011508   4.9178 355.2161 15.08460026893391
SL-14 R/B               
1 20466U 90010B   25110.37320906  .00000856  00000+0  10170-3 0  9997
2 20466  82.5052 210.9323 0018428 286.4472  73.4718 14.83202712901615
SL-14 R/B               
1 20511U 90018B   25110.21630214  .00000688  00000+0  83982-4 0  9990
2 20511  82.5225 165.3674 0017927  77.8389 282.4832 14.81789173895768
HST                     
1 20580U 90037B   25110.12898456  .00010160  00000+0  39258-3 0  9993
2 20580  28.4676  78.2549 0002049 167.9886 192.0757 15.24538580724077
SL-16 R/B               
1 20625U 90046B   25110.48765542 -.00000006  00000+0  21578-4 0  9997
2 20625  70.9993 256.6562 0011946  72.7196 287.5233 14.14960365802929
COSMOS 2084             
1 20663U 90055A   25110.14937298  .00005309  00000+0  38455-3 0  9992
2 20663  62.7924 356.9803 0070153 148.6437 211.8875 15.03228282887651
SL-6 R/B(2)             
1 20666U 90055D   25109.80979959  .00004294  00000+0  33911-3 0  9990
2 20666  62.7841 273.5354 0036155 179.7187 180.3938 15.01704358889527
SL-8 R/B                
1 20775U 90078B   25110.26201886  .00024604  00000+0  82880-3 0  9991
2 20775  82.9104 179.1388 0408185  11.7037 349.3314 14.76808366761379
SL-8 R/B                
1 21088U 91006B   25110.39901473  .00000102  00000+0  87250-4 0  9998
2 21088  82.9439  50.5391 0021468 218.1500 264.1215 13.77446036719837
OKEAN-3                 
1 21397U 91039A   25110.16420331  .00005584  00000+0  41934-3 0  9998
2 21397  82.5149 289.6603 0014626 357.3008   2.8136 15.02357374837502
COSMOS 2151             
1 21422U 91042A   25110.19970611  .00004188  00000+0  34645-3 0  9995
2 21422  82.5000  35.2533 0014424  74.1056 286.1755 14.98606358835872
SL-14 R/B               
1 21423U 91042B   25110.20293511  .00000661  00000+0  81217-4 0  9995
2 21423  82.4940 163.4682 0016095 219.8930 140.1103 14.81490411826216
ERS-1                   
1 21574U 91050A   25110.50602971  .00000624  00000+0  21524-3 0  9991
2 21574  98.7936 115.5719 0033349  81.2757 279.2204 14.39147378769223
ARIANE 40 R/B           
1 21610U 91050F   25109.17438693  .00000660  00000+0  21154-3 0  9990
2 21610  98.2444 167.7457 0002718   3.0718 357.0489 14.42579903772205
INTERCOSMOS 25          
1 21819U 91086A   25110.48701090  .00002325  00000+0  44947-3 0  9995
2 21819  82.6018 145.2654 1492908  93.0995 284.1315 12.10762338457578
SL-8 R/B                
1 21876U 92008B   25110.19866392  .00000153  00000+0  14162-3 0  9991
2 21876  82.9262 148.3580 0033643 320.1440 103.2343 13.75918161665169
SL-8 R/B                
1 21938U 92020B   25110.22400991  .00000121  00000+0  10974-3 0  9999
2 21938  82.9338  33.9896 0030248 119.2062 350.0628 13.75495808656960
USA 81                  
1 21949U 92023A   25110.06020776  .00000283  00000+0  97664-4 0  9996
2 21949  85.0059 318.1351 0001926  65.6587 294.4806 14.32219957 48469
COSMOS 2219             
1 22219U 92076A   25110.02669714  .00000179  00000+0  11883-3 0  9994
2 22219  71.0604 334.6350 0018736 329.2141  30.7881 14.14011753672950
SL-16 R/B               
1 22220U 92076B   25109.91987169 -.00000060  00000+0 -62372-5 0  9991
2 22220  70.9986 150.3570 0014704 234.8407 193.0912 14.16797378675976
COSMOS 2221             
1 22236U 92080A   25110.37133206  .00003094  00000+0  28287-3 0  9993
2 22236  82.5057 228.2854 0014687 192.5386 167.5472 14.94633353753520
SL-16 R/B               
1 22285U 92093B   25109.92154760  .00000274  00000+0  16484-3 0  9991
2 22285  71.0217 323.9089 0002226  76.3766 283.7605 14.15384845667665
COSMOS 2228             
1 22286U 92094A   25109.78041743  .00002877  00000+0  25714-3 0  9990
2 22286  82.5203 186.9719 0017262 314.9282  45.0538 14.95460111727621
SL-16 R/B               
1 22566U 93016B   25109.64736124  .00000363  00000+0  21084-3 0  9999
2 22566  71.0075 175.7362 0008239  99.0754 261.1301 14.15253432656326
COSMOS 2242             
1 22626U 93024A   25110.17117572  .00003982  00000+0  36197-3 0  9996
2 22626  82.5212 215.6674 0015548 316.1092  43.8893 14.94918258732352
SL-16 R/B               
1 22803U 93059B   25110.06601868  .00000120  00000+0  83448-4 0  9998
2 22803  70.9916 333.5510 0017899 336.4414  23.5888 14.17166257633947
ARIANE 40 R/B           
1 22830U 93061H   25110.21596766  .00000481  00000+0  19276-3 0  9995
2 22830  98.5295 179.7058 0011337 156.0077 204.1638 14.32624139648033
COSMOS 2278             
1 23087U 94023A   25110.44987824  .00000434  00000+0  25192-3 0  9995
2 23087  71.0508 131.3278 0008670 175.6125 184.5075 14.14283801599359
SL-16 R/B               
1 23088U 94023B   25110.22268413  .00000107  00000+0  80077-4 0  9999
2 23088  71.0026  30.1645 0001424  32.4352 327.6858 14.14962236600607
SL-16 R/B               
1 23343U 94074B   25110.10471521  .00000834  00000+0  11961-3 0  9994
2 23343  97.7453 148.4242 0006494 181.9818 236.4066 14.78967530639629
SL-16 R/B               
1 23405U 94077B   25108.98774374 -.00000121  00000+0 -37472-4 0  9998
2 23405  70.9823 315.5694 0004687 284.0564  76.0037 14.15507464570284
ARIANE 40+ R/B          
1 23561U 95021B   25110.21231310  .00000600  00000+0  20650-3 0  9997
2 23561  98.4860 180.3330 0007337  40.1308  24.8559 14.39483527572922
SL-16 R/B               
1 23705U 95058B   25110.46261192  .00000267  00000+0  16087-3 0  9993
2 23705  71.0195 138.8387 0014721 254.8342 105.1153 14.15443176522419
SL-16 R/B               
1 24298U 96051B   25109.66070651 -.00000146  00000+0 -52249-4 0  9992
2 24298  70.7702 140.9610 0018201 255.7287 104.1812 14.12429799475897
ORBVIEW 2 (SEASTAR)     
1 24883U 97037A   25110.45394476  .00000595  00000+0  22437-3 0  9991
2 24883  98.8180 261.9985 0001198 306.3621  53.7453 14.35204266462362
SL-16 R/B               
1 25400U 98043G   25110.47770098  .00000158  00000+0  85193-4 0  9999
2 25400  98.7836  57.4335 0008972 228.3110 131.7303 14.25957524393157
SL-16 R/B               
1 25407U 98045B   25109.50161854  .00000017  00000+0  32695-4 0  9997
2 25407  71.0091 143.3042 0007096 177.4347 182.6814 14.16129534381200
ISS (ZARYA)             
1 25544U 98067A   25110.50028097  .00017732  00000+0  32069-3 0  9992
2 25544  51.6382 232.7555 0005493  61.8645  30.8411 15.49747823506218
CZ-4B R/B               
1 25732U 99025C   25109.77990312  .00000159  00000+0  97972-4 0  9991
2 25732  98.7057 155.9001 0036962 194.2508 290.4912 14.18173191342252
OKEAN-O                 
1 25860U 99039A   25110.14466161  .00001248  00000+0  17318-3 0  9996
2 25860  97.9885 167.4843 0000978  77.4832 282.6489 14.79695250386629
SL-16 R/B               
1 25861U 99039B   25110.17068280  .00001122  00000+0  15096-3 0  9992
2 25861  98.0413 163.8740 0013991 222.2092 137.8044 14.81189880389094
DELTA 2 R/B             
1 25876U 99041E   25110.49021351  .00001737  00000+0  32018-3 0  9999
2 25876  51.7594 150.8056 0508166 115.4542 249.9858 14.10609426317418
HELIOS 1B               
1 25977U 99064A   25109.76007887  .00002502  00000+0  29086-3 0  9994
2 25977  98.2020 357.3055 0002333  67.5335 292.6127 14.86287706637128
TERRA                   
1 25994U 99068A   25110.48571943  .00000910  00000+0  19615-3 0  9995
2 25994  98.0028 170.3979 0003633 112.5667 305.9700 14.60635640348012
SL-16 R/B               
1 26070U 00006B   25110.21041189 -.00000133  00000+0 -43521-4 0  9993
2 26070  71.0028  57.9655 0018383 308.8424  51.1057 14.15767349302757
TITAN 4B R/B            
1 26474U 00047B   25109.76900916  .00005274  00000+0  35582-3 0  9992
2 26474  67.9909 229.2214 0040614  39.6665 320.7441 15.06746189344073
ENVISAT                 
1 27386U 02009A   25110.49365418  .00000277  00000+0  10385-3 0  9991
2 27386  98.3291  67.7111 0001188  84.4189  26.9093 14.38897617212766
IDEFIX & ARIANE 42P R/B 
1 27422U 02021B   25109.45385942  .00000586  00000+0  24017-3 0  9994
2 27422  98.5579  47.6119 0013023  64.3522 295.9004 14.30746999197650
AQUA                    
1 27424U 02022A   25110.49190655  .00001925  00000+0  40090-3 0  9995
2 27424  98.3731  68.1378 0001092 108.6371   1.6953 14.61156736221563
CZ-4B R/B               
1 27432U 02024C   25110.10354669  .00000103  00000+0  76444-4 0  9991
2 27432  98.9293 159.2393 0049554 220.3566 193.9070 14.14473054183579
MIDORI II (ADEOS-II)    
1 27597U 02056A   25110.48809680  .00000660  00000+0  27879-3 0  9992
2 27597  98.7336  62.6967 0000779 139.6715 220.4524 14.28996226164110
H-2A R/B                
1 27601U 02056E   25110.49818429  .00000714  00000+0  26558-3 0  9993
2 27601  98.2748  79.1619 0071540  45.6967  64.9199 14.33457101167789
